ONEWEB-0665             
1 55825U 23029AF  25058.41175937  .00000153  00000+0  37702-3 0  9998
2 55825  87.9043  24.1217 0002122  87.1163 273.0209 13.14502223 97729
ONEWEB-0666             
1 55826U 23029AG  25058.11433833  .00003552  00000+0  87025-2 0  9996
2 55826  87.9316   9.0143 0001522  75.6774 284.4528 13.20758550 99125
ONEWEB-0667             
1 55827U 23029AH  25058.56253764  .00000165  00000+0  37304-3 0  9992
2 55827  87.9316   8.8576 0001973  87.6242 272.5117 13.20770136 99177
ONEWEB-0669             
1 55828U 23029AJ  25058.55781161  .00000118  00000+0  25844-3 0  9993
2 55828  87.9316   8.8947 0001104  86.8435 273.2825 13.20770760 99178
ONEWEB-0670             
1 55829U 23029AK  25058.46565674 -.00000187  00000+0 -53825-3 0  9991
2 55829  87.9048  24.1251 0001942  96.9847 263.1503 13.14501489 97755
ONEWEB-0671             
1 55830U 23029AL  25058.45037925  .00000132  00000+0  29779-3 0  9994
2 55830  87.9180  39.3389 0001970  94.4582 265.6775 13.19724156 96978
ONEWEB-0672             
1 55831U 23029AM  25058.55307978  .00000045  00000+0  79920-4 0  9991
2 55831  87.9318   8.8809 0001607  71.9519 288.1790 13.20771011 99173
ONEWEB-0673             
1 55832U 23029AN  25058.42669019  .00000149  00000+0  33956-3 0  9998
2 55832  87.9180  39.3082 0002158  83.2528 276.8851 13.19724292 96997
